CCSDS_OMM_VERS = 2.0
CREATION_DATE  = 
ORIGINATOR     = 

OBJECT_NAME    = STARLINK-36083
OBJECT_ID      = 2025-281K
CENTER_NAME    = EARTH
REF_FRAME      = TEME
TIME_SYSTEM    = UTC
MEAN_ELEMENT_THEORY = SGP/SGP4

EPOCH          = 2025-12-26T20:00:01.999008
MEAN_MOTION    = 15.50665439
ECCENTRICITY   = .0001131
INCLINATION    = 43.0006
RA_OF_ASC_NODE = 37.1969
ARG_OF_PERICENTER = 253.6798
MEAN_ANOMALY   = 227.5687

EPHEMERIS_TYPE = 0
CLASSIFICATION_TYPE = U
NORAD_CAT_ID   = 66857
ELEMENT_SET_NO = 999
REV_AT_EPOCH   = 365
BSTAR          = -.24299E-2
MEAN_MOTION_DOT = -.140788E-2
MEAN_MOTION_DDOT = 0

CCSDS_OMM_VERS = 2.0
CREATION_DATE  = 
ORIGINATOR     = 

OBJECT_NAME    = STARLINK-35118
OBJECT_ID      = 2025-281L
CENTER_NAME    = EARTH
REF_FRAME      = TEME
TIME_SYSTEM    = UTC
MEAN_ELEMENT_THEORY = SGP/SGP4

EPOCH          = 2025-12-26T20:00:01.999008
MEAN_MOTION    = 15.50632043
ECCENTRICITY   = .000127
INCLINATION    = 43.0007
RA_OF_ASC_NODE = 37.1920
ARG_OF_PERICENTER = 245.4675
MEAN_ANOMALY   = 237.7181

EPHEMERIS_TYPE = 0
CLASSIFICATION_TYPE = U
NORAD_CAT_ID   = 66858
ELEMENT_SET_NO = 999
REV_AT_EPOCH   = 343
BSTAR          = -.16891E-2
MEAN_MOTION_DOT = -.98383E-3
MEAN_MOTION_DDOT = 0

CCSDS_OMM_VERS = 2.0
CREATION_DATE  = 
ORIGINATOR     = 

OBJECT_NAME    = STARLINK-35646
OBJECT_ID      = 2025-281M
CENTER_NAME    = EARTH
REF_FRAME      = TEME
TIME_SYSTEM    = UTC
MEAN_ELEMENT_THEORY = SGP/SGP4

EPOCH          = 2025-12-26T20:00:01.999008
MEAN_MOTION    = 15.50614649
ECCENTRICITY   = .0001114
INCLINATION    = 43.0004
RA_OF_ASC_NODE = 37.1866
ARG_OF_PERICENTER = 266.0700
MEAN_ANOMALY   = 219.0900

EPHEMERIS_TYPE = 0
CLASSIFICATION_TYPE = U
NORAD_CAT_ID   = 66859
ELEMENT_SET_NO = 999
REV_AT_EPOCH   = 365
BSTAR          = -.19576E-2
MEAN_MOTION_DOT = -.113671E-2
MEAN_MOTION_DDOT = 0

CCSDS_OMM_VERS = 2.0
CREATION_DATE  = 
ORIGINATOR     = 

OBJECT_NAME    = STARLINK-35987
OBJECT_ID      = 2025-281N
CENTER_NAME    = EARTH
REF_FRAME      = TEME
TIME_SYSTEM    = UTC
MEAN_ELEMENT_THEORY = SGP/SGP4

EPOCH          = 2025-12-26T20:00:01.999008
MEAN_MOTION    = 15.50606927
ECCENTRICITY   = .0001551
INCLINATION    = 43.0005
RA_OF_ASC_NODE = 37.1626
ARG_OF_PERICENTER = 274.3132
MEAN_ANOMALY   = 220.4342

EPHEMERIS_TYPE = 0
CLASSIFICATION_TYPE = U
NORAD_CAT_ID   = 66860
ELEMENT_SET_NO = 999
REV_AT_EPOCH   = 365
BSTAR          = -.17227E-2
MEAN_MOTION_DOT = -.100221E-2
MEAN_MOTION_DDOT = 0

CCSDS_OMM_VERS = 2.0
CREATION_DATE  = 
ORIGINATOR     = 

OBJECT_NAME    = STARLINK-35991
OBJECT_ID      = 2025-281P
CENTER_NAME    = EARTH
REF_FRAME      = TEME
TIME_SYSTEM    = UTC
MEAN_ELEMENT_THEORY = SGP/SGP4

EPOCH          = 2025-12-26T20:00:01.999008
MEAN_MOTION    = 15.50608662
ECCENTRICITY   = .0001
INCLINATION    = 43.0005
RA_OF_ASC_NODE = 37.1772
ARG_OF_PERICENTER = 270.2555
MEAN_ANOMALY   = 218.7387

EPHEMERIS_TYPE = 0
CLASSIFICATION_TYPE = U
NORAD_CAT_ID   = 66861
ELEMENT_SET_NO = 999
REV_AT_EPOCH   = 365
BSTAR          = -.17387E-2
MEAN_MOTION_DOT = -.101138E-2
MEAN_MOTION_DDOT = 0

CCSDS_OMM_VERS = 2.0
CREATION_DATE  = 
ORIGINATOR     = 

OBJECT_NAME    = STARLINK-35974
OBJECT_ID      = 2025-281Q
CENTER_NAME    = EARTH
REF_FRAME      = TEME
TIME_SYSTEM    = UTC
MEAN_ELEMENT_THEORY = SGP/SGP4

EPOCH          = 2025-12-26T20:00:01.999008
MEAN_MOTION    = 15.50624150
ECCENTRICITY   = .0001171
INCLINATION    = 43.0006
RA_OF_ASC_NODE = 37.1822
ARG_OF_PERICENTER = 255.8359
MEAN_ANOMALY   = 231.1660

EPHEMERIS_TYPE = 0
CLASSIFICATION_TYPE = U
NORAD_CAT_ID   = 66862
ELEMENT_SET_NO = 999
REV_AT_EPOCH   = 355
BSTAR          = -.12666E-2
MEAN_MOTION_DOT = -.74063E-3
MEAN_MOTION_DDOT = 0

CCSDS_OMM_VERS = 2.0
CREATION_DATE  = 
ORIGINATOR     = 

OBJECT_NAME    = STARLINK-36134
OBJECT_ID      = 2025-281R
CENTER_NAME    = EARTH
REF_FRAME      = TEME
TIME_SYSTEM    = UTC
MEAN_ELEMENT_THEORY = SGP/SGP4

EPOCH          = 2025-12-26T20:00:01.999008
MEAN_MOTION    = 15.50610411
ECCENTRICITY   = .0001068
INCLINATION    = 43.0006
RA_OF_ASC_NODE = 37.1728
ARG_OF_PERICENTER = 277.8135
MEAN_ANOMALY   = 213.0974

EPHEMERIS_TYPE = 0
CLASSIFICATION_TYPE = U
NORAD_CAT_ID   = 66863
ELEMENT_SET_NO = 999
REV_AT_EPOCH   = 365
BSTAR          = -.17888E-2
MEAN_MOTION_DOT = -.10401E-2
MEAN_MOTION_DDOT = 0

CCSDS_OMM_VERS = 2.0
CREATION_DATE  = 
ORIGINATOR     = 

OBJECT_NAME    = STARLINK-36070
OBJECT_ID      = 2025-281S
CENTER_NAME    = EARTH
REF_FRAME      = TEME
TIME_SYSTEM    = UTC
MEAN_ELEMENT_THEORY = SGP/SGP4

EPOCH          = 2025-12-26T20:00:01.999008
MEAN_MOTION    = 15.50571610
ECCENTRICITY   = .0001126
INCLINATION    = 43.0005
RA_OF_ASC_NODE = 37.1675
ARG_OF_PERICENTER = 250.0018
MEAN_ANOMALY   = 242.7150

EPHEMERIS_TYPE = 0
CLASSIFICATION_TYPE = U
NORAD_CAT_ID   = 66864
ELEMENT_SET_NO = 999
REV_AT_EPOCH   = 368
BSTAR          = .69934E-3
MEAN_MOTION_DOT = .40889E-3
MEAN_MOTION_DDOT = 0

CCSDS_OMM_VERS = 2.0
CREATION_DATE  = 
ORIGINATOR     = 

OBJECT_NAME    = STARLINK-36117
OBJECT_ID      = 2025-281T
CENTER_NAME    = EARTH
REF_FRAME      = TEME
TIME_SYSTEM    = UTC
MEAN_ELEMENT_THEORY = SGP/SGP4

EPOCH          = 2025-12-26T20:00:01.999008
MEAN_MOTION    = 15.50719772
ECCENTRICITY   = .0001262
INCLINATION    = 43.0003
RA_OF_ASC_NODE = 37.1591
ARG_OF_PERICENTER = 276.0832
MEAN_ANOMALY   = 220.5582

EPHEMERIS_TYPE = 0
CLASSIFICATION_TYPE = U
NORAD_CAT_ID   = 66865
ELEMENT_SET_NO = 999
REV_AT_EPOCH   = 365
BSTAR          = -.47629E-2
MEAN_MOTION_DOT = -.27164E-2
MEAN_MOTION_DDOT = 0

CCSDS_OMM_VERS = 2.0
CREATION_DATE  = 
ORIGINATOR     = 

OBJECT_NAME    = STARLINK-36126
OBJECT_ID      = 2025-281U
CENTER_NAME    = EARTH
REF_FRAME      = TEME
TIME_SYSTEM    = UTC
MEAN_ELEMENT_THEORY = SGP/SGP4

EPOCH          = 2025-12-26T20:00:01.999008
MEAN_MOTION    = 15.50564980
ECCENTRICITY   = .0001159
INCLINATION    = 43.0004
RA_OF_ASC_NODE = 37.1530
ARG_OF_PERICENTER = 245.5520
MEAN_ANOMALY   = 252.9312

EPHEMERIS_TYPE = 0
CLASSIFICATION_TYPE = U
NORAD_CAT_ID   = 66866
ELEMENT_SET_NO = 999
REV_AT_EPOCH   = 368
BSTAR          = .75753E-3
MEAN_MOTION_DOT = .44328E-3
MEAN_MOTION_DDOT = 0

CCSDS_OMM_VERS = 2.0
CREATION_DATE  = 
ORIGINATOR     = 

OBJECT_NAME    = STARLINK-36101
OBJECT_ID      = 2025-281V
CENTER_NAME    = EARTH
REF_FRAME      = TEME
TIME_SYSTEM    = UTC
MEAN_ELEMENT_THEORY = SGP/SGP4

EPOCH          = 2025-12-26T20:00:01.999008
MEAN_MOTION    = 15.50606532
ECCENTRICITY   = .0001146
INCLINATION    = 43.0007
RA_OF_ASC_NODE = 37.1478
ARG_OF_PERICENTER = 244.8030
MEAN_ANOMALY   = 255.6972

EPHEMERIS_TYPE = 0
CLASSIFICATION_TYPE = U
NORAD_CAT_ID   = 66867
ELEMENT_SET_NO = 999
REV_AT_EPOCH   = 349
BSTAR          = -.16854E-2
MEAN_MOTION_DOT = -.98079E-3
MEAN_MOTION_DDOT = 0

CCSDS_OMM_VERS = 2.0
CREATION_DATE  = 
ORIGINATOR     = 

OBJECT_NAME    = STARLINK-36108
OBJECT_ID      = 2025-281W
CENTER_NAME    = EARTH
REF_FRAME      = TEME
TIME_SYSTEM    = UTC
MEAN_ELEMENT_THEORY = SGP/SGP4

EPOCH          = 2025-12-26T20:00:01.999008
MEAN_MOTION    = 15.50682315
ECCENTRICITY   = .0001375
INCLINATION    = 43.0004
RA_OF_ASC_NODE = 37.1444
ARG_OF_PERICENTER = 269.3777
MEAN_ANOMALY   = 232.9983

EPHEMERIS_TYPE = 0
CLASSIFICATION_TYPE = U
NORAD_CAT_ID   = 66868
ELEMENT_SET_NO = 999
REV_AT_EPOCH   = 349
BSTAR          = -.37889E-2
MEAN_MOTION_DOT = -.217359E-2
MEAN_MOTION_DDOT = 0

