STARLINK-36083          
1 66857U 25281K   25360.83335647 -.00140788  00000+0 -24299-2 0  9992
2 66857  43.0006  37.1969 0001131 253.6798 227.5687 15.50665439  3653
STARLINK-35118          
1 66858U 25281L   25360.83335647 -.00098383  00000+0 -16891-2 0  9995
2 66858  43.0007  37.1920 0001270 245.4675 237.7181 15.50632043  3432
STARLINK-35646          
1 66859U 25281M   25360.83335647 -.00113671  00000+0 -19576-2 0  9997
2 66859  43.0004  37.1866 0001114 266.0700 219.0900 15.50614649  3652
STARLINK-35987          
1 66860U 25281N   25360.83335647 -.00100221  00000+0 -17227-2 0  9997
2 66860  43.0005  37.1626 0001551 274.3132 220.4342 15.50606927  3651
STARLINK-35991          
1 66861U 25281P   25360.83335647 -.00101138  00000+0 -17387-2 0  9993
2 66861  43.0005  37.1772 0001000 270.2555 218.7387 15.50608662  3654
STARLINK-35974          
1 66862U 25281Q   25360.83335647 -.00074063  00000+0 -12666-2 0  9995
2 66862  43.0006  37.1822 0001171 255.8359 231.1660 15.50624150  3554
STARLINK-36134          
1 66863U 25281R   25360.83335647 -.00104010  00000+0 -17888-2 0  9993
2 66863  43.0006  37.1728 0001068 277.8135 213.0974 15.50610411  3654
STARLINK-36070          
1 66864U 25281S   25360.83335647  .00040889  00000+0  69934-3 0  9995
2 66864  43.0005  37.1675 0001126 250.0018 242.7150 15.50571610  3688
STARLINK-36117          
1 66865U 25281T   25360.83335647 -.00271640  00000+0 -47629-2 0  9995
2 66865  43.0003  37.1591 0001262 276.0832 220.5582 15.50719772  3650
STARLINK-36126          
1 66866U 25281U   25360.83335647  .00044328  00000+0  75753-3 0  9995
2 66866  43.0004  37.1530 0001159 245.5520 252.9312 15.50564980  3687
STARLINK-36101          
1 66867U 25281V   25360.83335647 -.00098079  00000+0 -16854-2 0  9996
2 66867  43.0007  37.1478 0001146 244.8030 255.6972 15.50606532  3497
STARLINK-36108          
1 66868U 25281W   25360.83335647 -.00217359  00000+0 -37889-2 0  9992
2 66868  43.0004  37.1444 0001375 269.3777 232.9983 15.50682315  3495
